start=new Date('2023-01-02T00:00:00.000Z').valueOf();
sats=[{"TIME_SYSTEM":"UTC","INCLINATION":"53.2198","RA_OF_ASC_NODE":"85.7178","OBJECT_NAME":"STARLINK-4646","LAUNCH_DATE":"2022-09-05","TLE_LINE2":"2 53737  53.2198  85.7178 0001512  46.1340 313.9777 15.08826470 18993","OBJECT_ID":"2022-107AP","ECCENTRICITY":"0.00015120","REV_AT_EPOCH":"1899","COUNTRY_CODE":"US","GP_ID":"221935780","OBJECT_TYPE":"PAYLOAD","MEAN_ANOMALY":"313.9777","TLE_LINE1":"1 53737U 22107AP  23001.50173353 -.00006204  00000-0 -37220-3 0  9991","DECAY_DATE":null,"SITE":"AFETR","BSTAR":"-0.00037220000000","EPOCH":"2023-01-01T12:02:29.776992","MEAN_MOTION_DDOT":"0.0000000000000","RCS_SIZE":"LARGE","REF_FRAME":"TEME","MEAN_MOTION":"15.08826470","ARG_OF_PERICENTER":"46.1340","FILE":"3728759","APOAPSIS":"540.833","SEMIMAJOR_AXIS":"6917.922","EPHEMERIS_TYPE":"0","PERIAPSIS":"538.741","PERIOD":"95.438","MEAN_MOTION_DOT":"-0.00006204","MEAN_ELEMENT_THEORY":"SGP4","ELEMENT_SET_NO":"999","CLASSIFICATION_TYPE":"U","NORAD_CAT_ID":"53737","CENTER_NAME":"EARTH"},{"TLE_LINE2":"2 53738  53.2189  83.5885 0001718  40.3582 319.7537 15.08851194 18288","LAUNCH_DATE":"2022-09-05","RA_OF_ASC_NODE":"83.5885","OBJECT_NAME":"STARLINK-4662","INCLINATION":"53.2189","TIME_SYSTEM":"UTC","EPOCH":"2023-01-01T22:59:33.952704","MEAN_MOTION_DDOT":"0.0000000000000","DECAY_DATE":null,"TLE_LINE1":"1 53738U 22107AQ  23001.95803186  .00007238  00000-0  47225-3 0  9997","SITE":"AFETR","BSTAR":"0.00047225000000","GP_ID":"221995449","OBJECT_TYPE":"PAYLOAD","MEAN_ANOMALY":"319.7537","COUNTRY_CODE":"US","REV_AT_EPOCH":"1828","OBJECT_ID":"2022-107AQ","ECCENTRICITY":"0.00017180","FILE":"3729047","APOAPSIS":"540.900","MEAN_MOTION":"15.08851194","ARG_OF_PERICENTER":"40.3582","REF_FRAME":"TEME","RCS_SIZE":"LARGE","NORAD_CAT_ID":"53738","CENTER_NAME":"EARTH","CLASSIFICATION_TYPE":"U","ELEMENT_SET_NO":"999","MEAN_MOTION_DOT":"0.00007238","MEAN_ELEMENT_THEORY":"SGP4","PERIOD":"95.437","PERIAPSIS":"538.523","EPHEMERIS_TYPE":"0","SEMIMAJOR_AXIS":"6917.846"},{"MEAN_ANOMALY":"308.7670","GP_ID":"221991763","OBJECT_TYPE":"PAYLOAD","COUNTRY_CODE":"US","REV_AT_EPOCH":"1902","ECCENTRICITY":"0.00015500","OBJECT_ID":"2022-107AS","MEAN_MOTION_DDOT":"0.0000000000000","EPOCH":"2023-01-01T16:53:57.894720","SITE":"AFETR","TLE_LINE1":"1 53740U 22107AS  23001.70414230 -.00010921  00000-0 -66955-3 0  9997","DECAY_DATE":null,"BSTAR":"-0.00066955000000","OBJECT_NAME":"STARLINK-4607","RA_OF_ASC_NODE":"84.8483","INCLINATION":"53.2185","TIME_SYSTEM":"UTC","TLE_LINE2":"2 53740  53.2185  84.8483 0001550  51.3461 308.7670 15.08814453 19023","LAUNCH_DATE":"2022-09-05","PERIOD":"95.439","EPHEMERIS_TYPE":"0","PERIAPSIS":"538.751","SEMIMAJOR_AXIS":"6917.958","NORAD_CAT_ID":"53740","CENTER_NAME":"EARTH","CLASSIFICATION_TYPE":"U","ELEMENT_SET_NO":"999","MEAN_ELEMENT_THEORY":"SGP4","MEAN_MOTION_DOT":"-0.00010921","REF_FRAME":"TEME","RCS_SIZE":"LARGE","APOAPSIS":"540.896","FILE":"3728952","ARG_OF_PERICENTER":"51.3461","MEAN_MOTION":"15.08814453"},{"REF_FRAME":"TEME","RCS_SIZE":"LARGE","FILE":"3728952","APOAPSIS":"541.465","MEAN_MOTION":"15.08842001","ARG_OF_PERICENTER":"50.1257","PERIOD":"95.437","EPHEMERIS_TYPE":"0","PERIAPSIS":"538.014","SEMIMAJOR_AXIS":"6917.874","NORAD_CAT_ID":"53741","CENTER_NAME":"EARTH","CLASSIFICATION_TYPE":"U","ELEMENT_SET_NO":"999","MEAN_MOTION_DOT":"0.00002044","MEAN_ELEMENT_THEORY":"SGP4","RA_OF_ASC_NODE":"68.9325","OBJECT_NAME":"STARLINK-4614","INCLINATION":"53.2190","TIME_SYSTEM":"UTC","TLE_LINE2":"2 53741  53.2190  68.9325 0002494  50.1257 309.9954 15.08842001 19260","LAUNCH_DATE":"2022-09-05","OBJECT_TYPE":"PAYLOAD","GP_ID":"221992889","MEAN_ANOMALY":"309.9954","COUNTRY_CODE":"US","REV_AT_EPOCH":"1926","OBJECT_ID":"2022-107AT","ECCENTRICITY":"0.00024940","EPOCH":"2023-01-01T21:09:00.653184","MEAN_MOTION_DDOT":"0.0000000000000","TLE_LINE1":"1 53741U 22107AT  23001.88125756  .00002044  00000-0  14649-3 0  9997","DECAY_DATE":null,"BSTAR":"0.00014649000000","SITE":"AFETR"},{"DECAY_DATE":null,"TLE_LINE1":"1 53742U 22107AU  23001.64160167 -.00005223  00000-0 -31045-3 0  9990","BSTAR":"-0.00031045000000","SITE":"AFETR","MEAN_MOTION_DDOT":"0.0000000000000","EPOCH":"2023-01-01T15:23:54.384288","ECCENTRICITY":"0.00016720","OBJECT_ID":"2022-107AU","REV_AT_EPOCH":"1823","COUNTRY_CODE":"US","MEAN_ANOMALY":"316.0013","OBJECT_TYPE":"PAYLOAD","GP_ID":"221995444","LAUNCH_DATE":"2022-09-05","TLE_LINE2":"2 53742  53.2183  85.1668 0001672  44.1113 316.0013 15.08822464 18237","TIME_SYSTEM":"UTC","INCLINATION":"53.2183","OBJECT_NAME":"STARLINK-4637","RA_OF_ASC_NODE":"85.1668","MEAN_ELEMENT_THEORY":"SGP4","MEAN_MOTION_DOT":"-0.00005223","ELEMENT_SET_NO":"999","CLASSIFICATION_TYPE":"U","NORAD_CAT_ID":"53742","CENTER_NAME":"EARTH","SEMIMAJOR_AXIS":"6917.934","EPHEMERIS_TYPE":"0","PERIAPSIS":"538.642","PERIOD":"95.439","ARG_OF_PERICENTER":"44.1113","MEAN_MOTION":"15.08822464","APOAPSIS":"540.956","FILE":"3729047","RCS_SIZE":"LARGE","REF_FRAME":"TEME"},{"CLASSIFICATION_TYPE":"U","NORAD_CAT_ID":"53743","CENTER_NAME":"EARTH","MEAN_ELEMENT_THEORY":"SGP4","MEAN_MOTION_DOT":"-0.00002391","ELEMENT_SET_NO":"999","EPHEMERIS_TYPE":"0","PERIAPSIS":"538.390","PERIOD":"95.437","SEMIMAJOR_AXIS":"6917.872","ARG_OF_PERICENTER":"47.5043","MEAN_MOTION":"15.08842709","APOAPSIS":"541.085","FILE":"3729044","REF_FRAME":"TEME","RCS_SIZE":"LARGE","MEAN_MOTION_DDOT":"0.0000000000000","EPOCH":"2023-01-01T22:06:38.540160","TLE_LINE1":"1 53743U 22107AV  23001.92127940 -.00002391  00000-0 -13213-3 0  9994","SITE":"AFETR","DECAY_DATE":null,"BSTAR":"-0.00013213000000","COUNTRY_CODE":"US","MEAN_ANOMALY":"312.6113","OBJECT_TYPE":"PAYLOAD","GP_ID":"221995454","ECCENTRICITY":"0.00019480","OBJECT_ID":"2022-107AV","REV_AT_EPOCH":"1827","TLE_LINE2":"2 53743  53.2204  84.0726 0001948  47.5043 312.6113 15.08842709 18271","LAUNCH_DATE":"2022-09-05","INCLINATION":"53.2204","OBJECT_NAME":"STARLINK-4645","RA_OF_ASC_NODE":"84.0726","TIME_SYSTEM":"UTC"},{"SITE":"AFETR","TLE_LINE1":"1 53744U 22107AW  23001.91024487 -.00001162  00000-0 -54928-4 0  9990","DECAY_DATE":null,"BSTAR":"-0.00005492800000","EPOCH":"2023-01-01T21:50:45.156768","MEAN_MOTION_DDOT":"0.0000000000000","OBJECT_ID":"2022-107AW","ECCENTRICITY":"0.00018500","REV_AT_EPOCH":"1905","COUNTRY_CODE":"US","GP_ID":"221992214","OBJECT_TYPE":"PAYLOAD","MEAN_ANOMALY":"307.3430","LAUNCH_DATE":"2022-09-05","TLE_LINE2":"2 53744  53.2185  84.0018 0001850  52.7731 307.3430 15.08827880 19051","TIME_SYSTEM":"UTC","INCLINATION":"53.2185","RA_OF_ASC_NODE":"84.0018","OBJECT_NAME":"STARLINK-4670","MEAN_MOTION_DOT":"-0.00001162","MEAN_ELEMENT_THEORY":"SGP4","ELEMENT_SET_NO":"999","CLASSIFICATION_TYPE":"U","NORAD_CAT_ID":"53744","CENTER_NAME":"EARTH","SEMIMAJOR_AXIS":"6917.917","EPHEMERIS_TYPE":"0","PERIAPSIS":"538.503","PERIOD":"95.438","MEAN_MOTION":"15.08827880","ARG_OF_PERICENTER":"52.7731","FILE":"3728952","APOAPSIS":"541.062","RCS_SIZE":"LARGE","REF_FRAME":"TEME"},{"NORAD_CAT_ID":"53745","CENTER_NAME":"EARTH","CLASSIFICATION_TYPE":"U","ELEMENT_SET_NO":"999","MEAN_MOTION_DOT":"-0.00005685","MEAN_ELEMENT_THEORY":"SGP4","PERIOD":"95.438","EPHEMERIS_TYPE":"0","PERIAPSIS":"538.486","SEMIMAJOR_AXIS":"6917.916","FILE":"3728952","APOAPSIS":"541.076","MEAN_MOTION":"15.08828471","ARG_OF_PERICENTER":"42.1327","REF_FRAME":"TEME","RCS_SIZE":"LARGE","EPOCH":"2023-01-01T22:11:57.522912","MEAN_MOTION_DDOT":"0.0000000000000","TLE_LINE1":"1 53745U 22107AX  23001.92497133 -.00005685  00000-0 -33948-3 0  9996","BSTAR":"-0.00033948000000","DECAY_DATE":null,"SITE":"AFETR","OBJECT_TYPE":"PAYLOAD","GP_ID":"221992440","MEAN_ANOMALY":"317.9809","COUNTRY_CODE":"US","REV_AT_EPOCH":"1905","OBJECT_ID":"2022-107AX","ECCENTRICITY":"0.00018720","TLE_LINE2":"2 53745  53.2192  84.0948 0001872  42.1327 317.9809 15.08828471 19054","LAUNCH_DATE":"2022-09-05","RA_OF_ASC_NODE":"84.0948","OBJECT_NAME":"STARLINK-4656","INCLINATION":"53.2192","TIME_SYSTEM":"UTC"},{"TLE_LINE2":"2 53746  53.2179  84.0461 0002448  30.8038 329.3097 15.08828394 19053","LAUNCH_DATE":"2022-09-05","INCLINATION":"53.2179","RA_OF_ASC_NODE":"84.0461","OBJECT_NAME":"STARLINK-4589","TIME_SYSTEM":"UTC","EPOCH":"2023-01-01T22:01:20.833536","MEAN_MOTION_DDOT":"0.0000000000000","DECAY_DATE":null,"TLE_LINE1":"1 53746U 22107AY  23001.91760224 -.00001812  00000-0 -95779-4 0  9999","BSTAR":"-0.00009577900000","SITE":"AFETR","COUNTRY_CODE":"US","GP_ID":"221992665","OBJECT_TYPE":"PAYLOAD","MEAN_ANOMALY":"329.3097","OBJECT_ID":"2022-107AY","ECCENTRICITY":"0.00024480","REV_AT_EPOCH":"1905","MEAN_MOTION":"15.08828394","ARG_OF_PERICENTER":"30.8038","FILE":"3728952","APOAPSIS":"541.474","REF_FRAME":"TEME","RCS_SIZE":"LARGE","CLASSIFICATION_TYPE":"U","CENTER_NAME":"EARTH","NORAD_CAT_ID":"53746","MEAN_MOTION_DOT":"-0.00001812","MEAN_ELEMENT_THEORY":"SGP4","ELEMENT_SET_NO":"999","EPHEMERIS_TYPE":"0","PERIAPSIS":"538.087","PERIOD":"95.438","SEMIMAJOR_AXIS":"6917.916"},{"RCS_SIZE":"LARGE","REF_FRAME":"TEME","ARG_OF_PERICENTER":"22.0599","MEAN_MOTION":"15.08835510","APOAPSIS":"541.583","FILE":"3729050","SEMIMAJOR_AXIS":"6917.894","EPHEMERIS_TYPE":"0","PERIAPSIS":"537.935","PERIOD":"95.438","MEAN_ELEMENT_THEORY":"SGP4","MEAN_MOTION_DOT":"-0.00005641","ELEMENT_SET_NO":"999","CLASSIFICATION_TYPE":"U","CENTER_NAME":"EARTH","NORAD_CAT_ID":"53748","TIME_SYSTEM":"UTC","INCLINATION":"53.2179","OBJECT_NAME":"STARLINK-4669","RA_OF_ASC_NODE":"83.8155","LAUNCH_DATE":"2022-09-05","TLE_LINE2":"2 53748  53.2179  83.8155 0002637  22.0599 338.0506 15.08835510 18281","ECCENTRICITY":"0.00026370","OBJECT_ID":"2022-107BA","REV_AT_EPOCH":"1828","COUNTRY_CODE":"US","MEAN_ANOMALY":"338.0506","GP_ID":"221995753","OBJECT_TYPE":"PAYLOAD","DECAY_DATE":null,"TLE_LINE1":"1 53748U 22107BA  23001.99490742 -.00005641  00000-0 -33659-3 0  9996","SITE":"AFETR","BSTAR":"-0.00033659000000","MEAN_MOTION_DDOT":"0.0000000000000","EPOCH":"2023-01-01T23:52:40.001088"}];
